AKEBONO (EXOS-D)        
1 19822U 89016A   15226.26835880  .00037396 -87325-7  83827-3 0  9994
2 19822  75.0469 323.8161 2075591  77.6658 328.5221 11.32209123831680
HST                     
1 20580U 90037B   15226.89720321  .00001071  00000-0  57227-4 0  9998
2 20580  28.4697 126.9232 0003026 144.8387 307.0869 15.07615869188675
POLAR                   
1 23802U 96013A   15225.82909717 -.00000116  00000-0  00000+0 0  9990
2 23802  78.5330 287.4630 7427845 351.8160   1.1645  1.29842541 93425
SWAS                    
1 25560U 98071A   15226.88124843  .00000641  00000-0  71024-4 0  9996
2 25560  69.8997 150.2905 0005825 133.2424 226.9219 14.92489635905195
ORSTED                  
1 25635U 99008B   15226.29910383  .00000133  00000-0  39827-4 0  9998
2 25635  96.4670 278.5699 0138096 232.9809 187.7347 14.47726526868879
CXO                     
1 25867U 99040B   15228.68214407  .00000446  00000-0  00000+0 0  9993
2 25867  76.7689 305.8462 7470914 267.5633   0.5598  0.37800912 13512
XMM-NEWTON              
1 25989U 99066A   15225.63486911 -.00000409  00000-0  00000+0 0  9999
2 25989  66.3887  38.8190 8046689  93.6777   0.3574  0.50314275 17512
TERRA                   
1 25994U 99068A   15226.72489802  .00000122  00000-0  37136-4 0  9996
2 25994  98.2097 300.4619 0001126  86.3054 273.8270 14.57122047832741
CLUSTER II-FM6 (SALSA)  
1 26410U 00041A   15228.91360315  .00000010  00000-0  00000+0 0  9994
2 26410 132.1874 325.4785 5656144 136.9834 359.4143  0.44190015 14536
CLUSTER II-FM7 (SAMBA)  
1 26411U 00041B   15228.93096344 -.00000142  00000-0  00000+0 0  9992
2 26411 131.3368 327.3429 6132933 142.8316 359.3642  0.44183302 14612
CLUSTER II-FM5 (RUMBA)  
1 26463U 00045A   15228.91974316 -.00000048  00000-0  00000+0 0  9990
2 26463 134.7390 324.7020 5800820 140.1264 359.3685  0.44186892 15118
CLUSTER II-FM8 (TANGO)  
1 26464U 00045B   15228.91011251  .00000010  00000-0  00000+0 0  9999
2 26464 132.1873 325.4773 5654871 136.9802 359.4126  0.44209231 50454
ODIN                    
1 26702U 01007A   15226.46029949  .00001622  00000-0  11725-3 0  9994
2 26702  97.6397 239.3187 0011767 177.7600 182.3681 15.05420348790369
TIMED                   
1 26998U 01055B   15226.15223932  .00000316  00000-0  38992-4 0  9993
2 26998  74.0703 213.9779 0000979 306.0863  54.0226 14.87398007741396
RHESSI                  
1 27370U 02004A   15226.88558127  .00003824  00000-0  16684-3 0  9990
2 27370  38.0361 171.6129 0012272 348.9514  11.0982 15.22446174743525
INTEGRAL                
1 27540U 02048A   15226.76055975  .00000644  00000-0  00000+0 0  9995
2 27540  53.0972 215.3814 8116365 264.6459 359.9661  0.33405478 11810
CORIOLIS                
1 27640U 03001A   15225.67452456  .00000031  00000-0  35932-4 0  9997
2 27640  98.7522 233.7538 0015292  82.6247  51.7562 14.18852627652433
SORCE                   
1 27651U 03004A   15226.15526938  .00000562  00000-0  74652-4 0  9994
2 27651  39.9955 110.4774 0023869 194.2753 165.7363 14.87832898680481
MOST                    
1 27843U 03031D   15226.16780660  .00000005  00000-0  22497-4 0  9994
2 27843  98.7164 232.8643 0010522 148.3714 211.8097 14.20485143628407
SCISAT 1                
1 27858U 03036A   15226.19073927  .00000197  00000-0  33111-4 0  9996
2 27858  73.9324  75.8778 0008527 325.5302  34.5317 14.76852930646413
SWIFT                   
1 28485U 04047A   15226.13451189  .00001785  00000-0  99751-4 0  9996
2 28485  20.5562 155.3371 0011817  25.4512 334.6502 15.02025862586802
SUZAKU (ASTRO-EII)      
1 28773U 05025A   15226.52302754  .00001832  00000-0  96080-4 0  9994
2 28773  31.3840 331.3926 0005004  85.9540 274.1678 15.13200772555272
FORMOSAT-3 FM6          
1 29047U 06011A   15226.15998297  .00000136  00000-0  70030-4 0  9990
2 29047  71.9801 120.2664 0052042 233.7034 125.9290 14.28380148488654
FORMOSAT-3 FM1          
1 29048U 06011B   15226.00047522  .00000067  00000-0  42806-4 0  9994
2 29048  71.9682  33.4688 0044380 188.9138 314.7087 14.28340245491127
FORMOSAT-3 FM5          
1 29049U 06011C   15226.34376421  .00000080  00000-0  48210-4 0  9995
2 29049  72.0194 194.4162 0036542 231.5942 239.2583 14.28353142486948
FORMOSAT-3 FM3          
1 29050U 06011D   15226.28604041  .00000377  00000-0  91315-4 0  9995
2 29050  72.0167 160.2420 0052304 297.6755  61.9095 14.57942531498474
FORMOSAT-3 FM4          
1 29051U 06011E   15225.86178900  .00000179  00000-0  85750-4 0  9995
2 29051  72.0060 100.6391 0067094 104.4986 256.3606 14.28361184489469
FORMOSAT-3 FM2          
1 29052U 06011F   15226.20979181  .00000106  00000-0  58349-4 0  9999
2 29052  72.0348 168.9170 0040908 196.3652 266.4834 14.28461316487827
CLOUDSAT                
1 29107U 06016A   15226.88326157  .00000128  00000-0  38412-4 0  9991
2 29107  98.1963 169.5526 0001256  54.4362 305.6953 14.57112932494529
CALIPSO                 
1 29108U 06016B   15226.81350071  .00000252  00000-0  65893-4 0  9998
2 29108  98.1974 169.0528 0001445  77.9857 282.1504 14.57107447494445
HINODE (SOLAR-B)        
1 29479U 06041A   15226.89309968  .00000189  00000-0  44688-4 0  9992
2 29479  98.1487 226.0365 0017453 167.9708 192.1915 14.64496741474988
SJ-6C                   
1 29505U 06046A   15226.71177912  .00000160  00000-0  20394-4 0  9997
2 29505  97.7913 221.5135 0003141 141.1363 219.0052 14.93856953479457
SJ-6D                   
1 29506U 06046B   15226.74758559  .00001072  00000-0  10904-3 0  9991
2 29506  97.8073 220.4545 0001234 188.0287 172.0908 14.92853988479211
AGILE                   
1 31135U 07013A   15225.13135072  .00004388  00000-0  12585-3 0  9998
2 31135   2.4679 304.4896 0014424 333.9651  25.9678 15.25615871460426
AIM                     
1 31304U 07015A   15226.86378920  .00002613  00000-0  17119-3 0  9997
2 31304  97.9297   7.1343 0004182 257.8304 102.2455 15.08651988453415
FGRST (GLAST)           
1 33053U 08029A   15226.46154200  .00000889  00000-0  35715-4 0  9991
2 33053  25.5822 259.6132 0013069  65.1459 295.0434 15.10050543395487
IBEX                    
1 33401U 08051A   15227.36711040 -.00003358  00000-0  00000+0 0  9993
2 33401  16.8631  95.1780 6262904  77.2187 357.8891  0.11108559  2899
WISE                    
1 36119U 09071A   15226.88198710  .00002094  00000-0  86028-4 0  9998
2 36119  97.5004 242.2611 0003743 138.0405 222.1120 15.25332953313671
SDO                     
1 36395U 10005A   15225.38074701 -.00000095  00000-0  00000+0 0  9991
2 36395  28.1642 152.6843 0001273 175.2156  28.1904  1.00268636 20312
CRYOSAT 2               
1 36508U 10013A   15226.55517018  .00000034  00000-0  76601-5 0  9997
2 36508  92.0223  39.6175 0010368 105.7252 254.5099 14.52180165283542
PICARD                  
1 36598U 10028A   15226.76546251  .00000141  00000-0  47371-4 0  9996
2 36598  98.3081  50.1232 0001097 205.5680 154.5460 14.50344225273285
SPEKTR-R                
1 37755U 11037A   15230.18838729 -.00002468  00000-0  00000+0 0  9996
2 37755  54.8765  99.8899 6853614 219.2915   3.7756  0.11120452  1755
GCOM-W1 (SHIZUKU)       
1 38337U 12025A   15225.92648619  .00000154  00000-0  44267-4 0  9991
2 38337  98.1977 164.8720 0001739  85.5809 316.4305 14.57126736172318
NUSTAR                  
1 38358U 12031A   15226.17527927  .00001553  00000-0  93458-4 0  9997
2 38358   6.0193 150.8434 0012886 325.0869  34.8415 14.86704803172074
RBSP A                  
1 38752U 12046A   15224.75759256 -.00000076  00000-0  76142-4 0  9996
2 38752   9.7822 143.6522 6816465 248.4687  29.7163  2.67371551 28806
RBSP B                  
1 38753U 12046B   15223.97924005 -.00000079  00000-0  14981-3 0  9991
2 38753   9.7629 148.7926 6822468 238.6897  37.5598  2.65814006 28657
NEOSSAT                 
1 39089U 13009D   15226.07072410  .00000045  00000-0  31827-4 0  9993
2 39089  98.6015  63.5460 0011922 127.4652 232.7619 14.34265917128908
BRITE-AUSTRIA           
1 39091U 13009F   15226.16590583  .00000058  00000-0  36119-4 0  9995
2 39091  98.6006  64.5084 0011283 137.8673 222.3381 14.34904891128971
UNIBRITE                
1 39092U 13009G   15226.52420548  .00000020  00000-0  22666-4 0  9990
2 39092  98.6006  64.6585 0010249 129.8925 230.3163 14.34776057129015
IRIS                    
1 39197U 13033A   15226.44715129  .00000330  00000-0  52756-4 0  9993
2 39197  97.9094  48.3381 0027867 188.3302 171.7449 14.77869071114729
HISAKI (SPRINT-A)       
1 39253U 13049A   15226.87776742  .00000098  00000-0  46222-4 0  9990
2 39253  29.7189 180.3348 0136792 332.1204  27.2091 13.55123889 94975
CASSIOPE                
1 39265U 13055A   15226.87351329  .00005357  00000-0  16378-3 0  9991
2 39265  80.9779 346.8263 0722455  28.4578  80.2124 14.14623814 96149
DANDE                   
1 39267U 13055C   15226.55874803  .00002808  00000-0  85829-4 0  9991
2 39267  81.0187 349.9481 0740162  35.2214 329.5622 14.10694010 95952
STSAT-3                 
1 39422U 13066G   15226.75286409  .00000465  00000-0  55480-4 0  9994
2 39422  97.7402 296.4877 0022159 301.2550  58.6506 14.88730927 93853
BRITE-PL                
1 39431U 13066R   15226.09250403  .00000220  00000-0  56957-4 0  9995
2 39431  97.6962 254.2436 0204302  40.2976 321.3158 14.46536481 91135
SWARM B                 
1 39451U 13067A   15226.56249598  .00000908  00000-0  40849-4 0  9999
2 39451  87.7500  88.9385 0003917  86.6841 273.4852 15.19754012 95645
SWARM A                 
1 39452U 13067B   15226.16988310  .00002518  00000-0  64951-4 0  9997
2 39452  87.3458  55.1212 0003944  86.2763 273.8942 15.38628136 96517
SWARM C                 
1 39453U 13067C   15226.16981264  .00002459  00000-0  63409-4 0  9990
2 39453  87.3458  56.5285 0003940  86.5780 273.5925 15.38627877 96475
BRITE-TORONTO           
1 40020U 14033L   15226.64720223  .00000189  00000-0  41660-4 0  9998
2 40020  97.9264 112.8937 0086978 304.0990  55.1982 14.66040137 61536
OCO 2                   
1 40059U 14035A   15226.80757420  .00000126  00000-0  37942-4 0  9998
2 40059  98.1975 166.9157 0000894  79.7075 280.4224 14.57112025 59475
BRITE-PL 2              
1 40119U 14049B   15226.18976999  .00000419  00000-0  57374-4 0  9991
2 40119  97.9877 302.9814 0019064 121.1217 239.1870 14.83546725 53357
RESURS P2               
1 40360U 14087A   15226.88256297  .00001831  00000-0  62109-4 0  9991
2 40360  97.2892 320.6350 0008800 240.4017 252.1407 15.31782558 35447
MMS 1                   
1 40482U 15011A   15226.74041638 -.00000190  00000-0  00000+0 0  9995
2 40482  28.9784  15.1609 8159703  47.0105 162.4624  1.00477386  1552
MMS 2                   
1 40483U 15011B   15226.74041638 -.00000190  00000-0  00000+0 0  9996
2 40483  29.0507  14.9286 8163992  47.3331 162.2508  1.00477462  1559
MMS 3                   
1 40484U 15011C   15226.74041638 -.00000189  00000-0  00000+0 0  9995
2 40484  28.9876  15.1107 8146849  47.2146 162.0033  1.00477467  1553
MMS 4                   
1 40485U 15011D   15226.74041638 -.00000190  00000-0  00000+0 0  9998
2 40485  29.0142  15.1743 8173497  47.1894 161.9432  1.00477046  1550
